[{"OBJECT_NAME":"OBJECT A","OBJECT_ID":"2026-027A","EPOCH":"2026-03-09T21:37:47.784000","MEAN_MOTION":15.17715556,"ECCENTRICITY":0.00101917,"INCLINATION":97.4902,"RA_OF_ASC_NODE":197.9118,"ARG_OF_PERICENTER":193.8683,"MEAN_ANOMALY":166.2272,"EPHEMERIS_TYPE":0,"CLASSIFICATION_TYPE":"U","NORAD_CAT_ID":67746,"ELEMENT_SET_NO":999,"REV_AT_EPOCH":389,"BSTAR":0.00052290801,"MEAN_MOTION_DOT":0.00010498,"MEAN_MOTION_DDOT":0},{"OBJECT_NAME":"CZ-4C DEB","OBJECT_ID":"2018-031H","EPOCH":"2026-03-09T10:10:58.582560","MEAN_MOTION":15.14033759,"ECCENTRICITY":0.00199639,"INCLINATION":98.1663,"RA_OF_ASC_NODE":242.9335,"ARG_OF_PERICENTER":272.748,"MEAN_ANOMALY":87.1465,"EPHEMERIS_TYPE":0,"CLASSIFICATION_TYPE":"U","NORAD_CAT_ID":43266,"ELEMENT_SET_NO":999,"REV_AT_EPOCH":43166,"BSTAR":0.00079064643,"MEAN_MOTION_DOT":0.00014379,"MEAN_MOTION_DDOT":0}]
